FALCON 9 R/B            
1 52818U 22061B   22161.46836179  .00022670  00000+0  23840-1 0  9995
2 52818  18.6245  44.8706 7696853 179.6917 275.1586  1.75892079    29
